PARUS_L_00002001-01
1 10090U 22497ZA  26070.40770833  .00000000  00000+0  00000-0 0  9990
2 10090  98.0000   0.0000 0000000   0.0000   0.0000 14.57888518    15
